[
    {
        "Altitude(m)": 610405.3500835202,
        "Argument of Periapsis(deg)": 0.0,
        "Eccentricity": 0.0,
        "Inclination(deg)": 60.0,
        "Latitude(deg)": 52.11134620486369,
        "Longitude(deg)": 97.47742918431527,
        "Mean Anomaly(deg)": 114.54549999999999,
        "RAAN(deg)": 65.0,
        "Satellite Name": "Test1 293",
        "Satellite Number": 293,
        "Semi-Major Axis(m)": 6980739.136638005,
        "Time(s)": 0
    },
    {
        "Altitude(m)": 610321.9231012901,
        "Argument of Periapsis(deg)": 0.00010418945913296404,
        "Eccentricity": 0.0,
        "Inclination(deg)": 60.0,
        "Latitude(deg)": 51.74606106194424,
        "Longitude(deg)": 98.24632412764491,
        "Mean Anomaly(deg)": 115.16560614546182,
        "RAAN(deg)": 64.99957995086025,
        "Satellite Name": "Test1 293",
        "Satellite Number": 293,
        "Semi-Major Axis(m)": 6980739.136638005,
        "Time(s)": 10
    }
]